GLOBALSTAR M057 [-]     
1 25943U 99058A   24033.93939152 -.00000083  00000+0  86475-4 0  9992
2 25943  52.0014 327.8452 0003161  55.8830 304.2319 12.24778817105632
GLOBALSTAR M059 [-]     
1 25944U 99058B   24033.65901760 -.00000045  00000+0  51019-3 0  9999
2 25944  52.0015 121.2366 0001090 111.5728  36.6987 11.99961016513950
GLOBALSTAR M056 [-]     
1 25945U 99058C   24033.57339928 -.00000133  00000+0 -53441-3 0  9992
2 25945  51.9964 136.2857 0000685 194.0124 271.7338 12.04774194102332
GLOBALSTAR M031 [-]     
1 25946U 99058D   24033.25759913 -.00000171  00000+0 -81901-3 0  9992
2 25946  51.9966  59.4466 0001427 230.2603 210.8142 12.16001498103608
GLOBALSTAR M039 [-]     
1 25961U 99062A   24033.34155641 -.00000029  00000+0  41832-3 0  9992
2 25961  51.9873 354.1357 0002745 325.6472  34.4217 12.62280881116965
GLOBALSTAR M034 [-]     
1 25962U 99062B   24033.85657589 -.00000049  00000+0  50165-3 0  9998
2 25962  51.9838 231.9308 0014093 172.0565 289.6855 11.79424033 79350
GLOBALSTAR M029 [-]     
1 25963U 99062C   24033.85047112 -.00000078  00000+0  10378-3 0  9998
2 25963  51.9835   9.1826 0002394 213.6995 151.0992 11.99873249109063
GLOBALSTAR M061 [-]     
1 25964U 99062D   24033.50607545 -.00000062  00000+0  29198-3 0  9996
2 25964  51.9805  50.2404 0006209 105.7336  62.3805 11.76758498 62236
